NORAD_CAT_ID,OBJECT_NAME,OBJECT_TYPE,EPOCH,MEAN_MOTION,ECCENTRICITY,INCLINATION,RA_OF_ASC_NODE,ARG_OF_PERICENTER,MEAN_ANOMALY,BSTAR,MEAN_MOTION_DOT,MEAN_MOTION_DDOT,TLE_LINE0,TLE_LINE1,TLE_LINE2,SEMIMAJOR_AXIS,PERIOD,APOGEE,PERIGEE,DECAYED
53009.0,STARLINK-4277,PAYLOAD,2023-03-02 19:23:18,15.08878447,0.0002064,53.2178,355.1523,66.6408,293.4801,0.0018263,0.00028928,0.0,0 STARLINK-4277,1 53009U 22076Z   23061.80785361  .00028928  00000-0  18263-2 0  9995,2 53009  53.2178 355.1523 0002064  66.6408 293.4801 15.08878447 36481,6917.763,95.435,541.056,538.2,0.0
53009.0,STARLINK-4277,PAYLOAD,2023-03-03 04:55:38,15.08784039,0.0001474,53.2181,353.3697,55.4608,304.6523,0.00090261,0.00014084,0.0,0 STARLINK-4277,1 53009U 22076Z   23062.20531001  .00014084  00000-0  90261-3 0  9997,2 53009  53.2181 353.3697 0001474  55.4608 304.6523 15.08784039 37018,6918.051,95.441,540.936,538.897,0.0
53009.0,STARLINK-4277,PAYLOAD,2023-03-03 19:14:07,15.0887217,0.0001821,53.218,350.6909,43.4565,316.6571,0.0032247,0.00051454,0.0,0 STARLINK-4277,1 53009U 22076Z   23062.80146991  .00051454  00000-0  32247-2 0  9994,2 53009  53.2180 350.6909 0001821  43.4565 316.6571 15.08872170 37108,6917.782,95.436,540.907,538.387,0.0
53009.0,STARLINK-4277,PAYLOAD,2023-03-04 01:35:38,15.08922102,0.0001923,53.2178,349.5016,39.298,320.8152,0.0038943,0.00062379,0.0,0 STARLINK-4277,1 53009U 22076Z   23063.06641838  .00062379  00000-0  38943-2 0  9990,2 53009  53.2178 349.5016 0001923  39.2980 320.8152 15.08922102 37145,6917.629,95.432,540.825,538.164,0.0
53009.0,STARLINK-4277,PAYLOAD,2023-03-05 06:12:32,15.08891702,0.0001533,53.2178,344.1495,61.3847,298.73,0.0014247,0.00022491,0.0,0 STARLINK-4277,1 53009U 22076Z   23064.25871458  .00022491  00000-0  14247-2 0  9997,2 53009  53.2178 344.1495 0001533  61.3847 298.7300 15.08891702 37321,6917.722,95.434,540.648,538.527,0.0
53009.0,STARLINK-4277,PAYLOAD,2023-03-05 22:06:24,15.08844863,0.000149,53.2182,341.175,75.8789,284.2369,0.00093785,0.00014671,0.0,0 STARLINK-4277,1 53009U 22076Z   23064.92111905  .00014671  00000-0  93785-3 0  9991,2 53009  53.2182 341.1750 0001490  75.8789 284.2369 15.08844863 37426,6917.866,95.437,540.761,538.7,0.0
53009.0,STARLINK-4277,PAYLOAD,2023-03-06 01:17:10,15.08874878,0.0001351,53.218,340.5817,67.0556,293.0579,0.0022474,0.00035695,0.0,0 STARLINK-4277,1 53009U 22076Z   23065.05359591  .00035695  00000-0  22474-2 0  9996,2 53009  53.2180 340.5817 0001351  67.0556 293.0579 15.08874878 37444,6917.774,95.435,540.573,538.704,0.0
53009.0,STARLINK-4277,PAYLOAD,2023-03-06 18:46:25,15.08839371,0.0001754,53.2175,337.3113,79.6162,280.5028,0.0022479,0.00035668,0.0,0 STARLINK-4277,1 53009U 22076Z   23065.78224285  .00035668  00000-0  22479-2 0  9992,2 53009  53.2175 337.3113 0001754  79.6162 280.5028 15.08839371 37551,6917.882,95.438,540.961,538.534,0.0
53009.0,STARLINK-4277,PAYLOAD,2023-03-07 17:01:51,15.08789788,0.0002227,53.2171,333.1483,80.8757,279.2487,0.00025381,3.748e-05,0.0,0 STARLINK-4277,1 53009U 22076Z   23066.70962666  .00003748  00000-0  25381-3 0  9997,2 53009  53.2171 333.1483 0002227  80.8757 279.2487 15.08789788 37696,6918.034,95.441,541.44,538.358,0.0
53009.0,STARLINK-4277,PAYLOAD,2023-03-08 16:52:39,15.08890737,0.0003573,53.2162,328.6928,66.5737,293.563,0.0033785,0.00053972,0.0,0 STARLINK-4277,1 53009U 22076Z   23067.70323000  .00053972  00000-0  33785-2 0  9991,2 53009  53.2162 328.6928 0003573  66.5737 293.5630 15.08890737 37374,6917.725,95.434,542.062,537.119,0.0
53009.0,STARLINK-4277,PAYLOAD,2023-03-08 23:14:10,15.08921137,0.0001464,53.2164,327.4944,126.8287,233.2839,0.0040551,0.00064989,0.0,0 STARLINK-4277,1 53009U 22076Z   23067.96817677  .00064989  00000-0  40551-2 0  9996,2 53009  53.2164 327.4944 0001464 126.8287 233.2839 15.08921137 37885,6917.632,95.432,540.51,538.485,0.0
53009.0,STARLINK-4277,PAYLOAD,2023-03-09 16:43:23,15.08909243,0.0001756,53.2158,324.2304,86.3519,273.7674,0.0031279,0.00049941,0.0,0 STARLINK-4277,1 53009U 22076Z   23068.69680459  .00049941  00000-0  31279-2 0  9991,2 53009  53.2158 324.2304 0001756  86.3519 273.7674 15.08909243 37997,6917.669,95.433,540.748,538.319,0.0
53009.0,STARLINK-4277,PAYLOAD,2023-03-09 21:29:32,15.08886898,8.24e-05,53.2167,323.3317,153.8358,206.2676,0.0019364,0.00030704,0.0,0 STARLINK-4277,1 53009U 22076Z   23068.89551886  .00030704  00000-0  19364-2 0  9992,2 53009  53.2167 323.3317 0000824 153.8358 206.2676 15.08886898 37552,6917.737,95.435,540.172,539.032,0.0
53009.0,STARLINK-4277,PAYLOAD,2023-03-10 00:40:18,15.08895285,6.96e-05,53.2167,322.7391,101.0836,259.0234,0.0026723,0.00042563,0.0,0 STARLINK-4277,1 53009U 22076Z   23069.02799604  .00042563  00000-0  26723-2 0  9993,2 53009  53.2167 322.7391 0000696 101.0836 259.0234 15.08895285 38041,6917.711,95.434,540.058,539.095,0.0
53009.0,STARLINK-4277,PAYLOAD,2023-03-10 16:34:10,15.08849613,0.0001247,53.2168,319.7669,78.2456,281.8676,0.0011147,0.00017502,0.0,0 STARLINK-4277,1 53009U 22076Z   23069.69040426  .00017502  00000-0  11147-2 0  9996,2 53009  53.2168 319.7669 0001247  78.2456 281.8676 15.08849613 38140,6917.851,95.437,540.579,538.853,0.0
53009.0,STARLINK-4277,PAYLOAD,2023-03-10 22:55:43,15.08829613,8.5e-05,53.2168,318.5776,38.0765,322.0287,0.0015265,0.00024083,0.0,0 STARLINK-4277,1 53009U 22076Z   23069.95536831  .00024083  00000-0  15265-2 0  9992,2 53009  53.2168 318.5776 0000850  38.0765 322.0287 15.08829613 37718,6917.912,95.438,540.365,539.189,0.0
53009.0,STARLINK-4277,PAYLOAD,2023-03-12 01:57:17,15.08866376,5.28e-05,53.2161,313.5198,77.1065,282.9986,0.0016723,0.00026446,0.0,0 STARLINK-4277,1 53009U 22076Z   23071.08144887  .00026446  00000-0  16723-2 0  9990,2 53009  53.2161 313.5198 0000528  77.1065 282.9986 15.08866376 38351,6917.8,95.436,540.03,539.3,0.0
53009.0,STARLINK-4277,PAYLOAD,2023-03-13 01:48:04,15.08854944,8.8e-05,53.2156,309.0595,77.6324,282.4766,0.00079463,0.00012386,0.0,0 STARLINK-4277,1 53009U 22076Z   23072.07504692  .00012386  00000-0  79463-3 0  9993,2 53009  53.2156 309.0595 0000880  77.6324 282.4766 15.08854944 38506,6917.835,95.437,540.308,539.091,0.0
53009.0,STARLINK-4277,PAYLOAD,2023-03-13 22:28:05,15.0882961,6.06e-05,53.2165,305.1901,143.8189,216.2844,0.00036891,5.587e-05,0.0,0 STARLINK-4277,1 53009U 22076Z   23072.93617414  .00005587  00000-0  36891-3 0  9998,2 53009  53.2165 305.1901 0000606 143.8189 216.2844 15.08829610 38161,6917.912,95.438,540.196,539.358,0.0
53009.0,STARLINK-4277,PAYLOAD,2023-03-14 00:03:28,15.08829777,4.55e-05,53.2168,304.8936,87.1036,273.0008,0.00045292,6.926e-05,0.0,0 STARLINK-4277,1 53009U 22076Z   23073.00241627  .00006926  00000-0  45292-3 0  9999,2 53009  53.2168 304.8936 0000455  87.1036 273.0008 15.08829777 38641,6917.912,95.438,540.091,539.462,0.0
53009.0,STARLINK-4277,PAYLOAD,2023-03-14 22:18:52,15.08869036,5.29e-05,53.2162,300.7352,68.2324,291.8724,0.0012107,0.00019048,0.0,0 STARLINK-4277,1 53009U 22076Z   23073.92976966  .00019048  00000-0  12107-2 0  9998,2 53009  53.2162 300.7352 0000529  68.2324 291.8724 15.08869036 38313,6917.792,95.436,540.023,539.291,0.0
53009.0,STARLINK-4277,PAYLOAD,2023-03-14 23:54:15,15.08879658,7.35e-05,53.2166,300.4356,61.7593,298.3473,0.0015003,0.00023696,0.0,0 STARLINK-4277,1 53009U 22076Z   23073.99600715  .00023696  00000-0  15003-2 0  9993,2 53009  53.2166 300.4356 0000735  61.7593 298.3473 15.08879658 38799,6917.759,95.435,540.133,539.116,0.0
53009.0,STARLINK-4277,PAYLOAD,2023-03-15 20:34:16,15.08849156,0.0001789,53.2176,296.5686,61.4899,298.6273,0.0011423,0.00017943,0.0,0 STARLINK-4277,1 53009U 22076Z   23074.85713313  .00017943  00000-0  11423-2 0  9998,2 53009  53.2176 296.5686 0001789  61.4899 298.6273 15.08849156 38923,6917.852,95.437,540.955,538.48,0.0
53009.0,STARLINK-4277,PAYLOAD,2023-03-15 22:09:39,15.08851765,0.0001619,53.2172,296.2703,57.2855,302.8293,0.00056017,8.641e-05,0.0,0 STARLINK-4277,1 53009U 22076Z   23074.92337105  .00008641  00000-0  56017-3 0  9991,2 53009  53.2172 296.2703 0001619  57.2855 302.8293 15.08851765 38461,6917.844,95.437,540.829,538.589,0.0
53009.0,STARLINK-4277,PAYLOAD,2023-03-16 14:03:31,15.0882261,0.0001429,53.2125,293.2967,67.4352,292.6791,0.00053261,8.195e-05,0.0,0 STARLINK-4277,1 53009U 22076Z   23075.58577574  .00008195  00000-0  53261-3 0  9992,2 53009  53.2125 293.2967 0001429  67.4352 292.6791 15.08822610 38569,6917.934,95.439,540.787,538.81,0.0
53009.0,STARLINK-4277,PAYLOAD,2023-03-16 20:25:03,15.08832047,9.76e-05,53.2126,292.1063,93.1257,266.9847,0.00065208,0.00010103,0.0,0 STARLINK-4277,1 53009U 22076Z   23075.85073808  .00010103  00000-0  65208-3 0  9999,2 53009  53.2126 292.1063 0000976  93.1257 266.9847 15.08832047 38607,6917.905,95.438,540.445,539.095,0.0
53009.0,STARLINK-4277,PAYLOAD,2023-03-16 22:00:27,15.08824598,9.94e-05,53.2146,291.8118,81.95,278.1605,0.0010228,0.00016021,0.0,0 STARLINK-4277,1 53009U 22076Z   23075.91698005  .00016021  00000-0  10228-2 0  9994,2 53009  53.2146 291.8118 0000994  81.9500 278.1605 15.08824598 39084,6917.927,95.439,540.48,539.105,0.0
53009.0,STARLINK-4277,PAYLOAD,2023-03-17 07:32:46,15.08832117,9.7e-05,53.2153,290.0278,80.4213,279.6889,0.00042434,6.471e-05,0.0,0 STARLINK-4277,1 53009U 22076Z   23076.31442188  .00006471  00000-0  42434-3 0  9991,2 53009  53.2153 290.0278 0000970  80.4213 279.6889 15.08832117 38679,6917.904,95.438,540.441,539.098,0.0
53009.0,STARLINK-4277,PAYLOAD,2023-03-17 20:15:51,15.08841463,0.0001006,53.2147,287.6495,76.324,283.7864,0.00056973,8.791e-05,0.0,0 STARLINK-4277,1 53009U 22076Z   23076.84434304  .00008791  00000-0  56973-3 0  9990,2 53009  53.2147 287.6495 0001006  76.3240 283.7864 15.08841463 39225,6917.876,95.437,540.437,539.045,0.0
53009.0,STARLINK-4277,PAYLOAD,2023-03-18 20:06:37,15.08853533,0.0001014,53.2148,283.1886,74.6938,285.4166,0.00048178,7.391e-05,0.0,0 STARLINK-4277,1 53009U 22076Z   23077.83793840  .00007391  00000-0  48178-3 0  9996,2 53009  53.2148 283.1886 0001014  74.6938 285.4166 15.08853533 38904,6917.839,95.437,540.405,539.003,0.0
